LEMUR-2-FURIAUS         
1 42840U 17042R   26068.96143223  .00025928  00000+0  99966-3 0  9991
2 42840  97.3753 248.4990 0007537  55.8686 304.3266 15.26272951473053
STARLINK-32688          
1 62193U 24229B   26068.90536925  .00030582  00000+0  11160-2 0  9999
2 62193  43.0005 269.5579 0002173 250.8853 109.1764 15.27587362 70597
